OBJECT_NAME,OBJECT_ID,EPOCH,MEAN_MOTION,ECCENTRICITY,INCLINATION,RA_OF_ASC_NODE,ARG_OF_PERICENTER,MEAN_ANOMALY,EPHEMERIS_TYPE,CLASSIFICATION_TYPE,NORAD_CAT_ID,ELEMENT_SET_NO,REV_AT_EPOCH,BSTAR,MEAN_MOTION_DOT,MEAN_MOTION_DDOT
CUBEBUG-2 (LO-74),2013-066AA,2026-06-11T07:15:18.483264,14.93713369,.00589328,97.8900,111.2555,48.0727,312.5496,0,U,39440,999,67611,.29202653E-3,.3136E-4,0
FUNCUBE-1 (AO-73),2013-066AE,2026-06-11T13:18:21.085344,15.09420113,.00351446,97.8262,133.8825,220.5848,139.2760,0,U,39444,999,67881,.34659464E-3,.5554E-4,0
UWE-3,2013-066AG,2026-06-11T09:36:40.667616,14.96977019,.00484872,97.8684,118.4353,340.4805,19.4558,0,U,39446,999,67671,.3092895E-3,.3579E-4,0
UNISAT-6,2014-033C,2026-06-11T10:02:21.892416,14.88214275,.00464072,97.7868,315.2326,87.7879,272.8650,0,U,40012,999,64530,.25524862E-3,.2346E-4,0
DUCHIFAT-1,2014-033M,2026-06-11T03:15:03.447648,15.63383077,.00040908,98.0470,220.4508,126.2071,233.9565,0,U,40021,999,65480,.10060624E-2,.93384E-3,0
QB50P1,2014-033R,2026-06-11T13:08:58.559136,15.18175616,.00073017,98.0966,173.2987,237.3952,122.6576,0,U,40025,999,65217,.35252177E-3,.7133E-4,0
LILACSAT-2,2015-049K,2026-06-11T14:18:23.003712,15.51260411,.00052758,97.4657,199.2254,272.1556,87.9091,0,U,40908,999,59488,.26876308E-3,.15666E-3,0
FOX-1A (AO-85),2015-058D,2026-06-11T14:01:05.826144,14.90942957,.01301141,64.7757,296.3951,58.7822,302.5964,0,U,40967,999,11273,.2160128E-3,.2335E-4,0
CAS-2T & KS-1Q,2016-066G,2026-06-11T11:48:20.742336,14.44675580,.03426013,98.3821,238.2932,146.7057,215.6206,0,U,41847,999,50397,.22435132E-3,.1549E-4,0
RADFXSAT (FOX-1B),2017-073E,2026-06-11T14:02:53.808864,15.12626564,.01504504,97.4718,29.9151,348.6412,11.1435,0,U,43017,999,46454,.38005261E-3,.8698E-4,0
DIWATA-2B,2018-084H,2026-06-11T15:14:01.872960,15.00426100,.00121906,98.1180,358.6022,188.2186,171.8839,0,U,43678,999,41538,.19092897E-3,.2338E-4,0
ES'HAIL 2,2018-090A,2026-06-11T13:22:05.900736,1.00274346,.00018735,0.0171,319.2547,163.3216,3.6824,0,U,43700,999,2762,0,.161E-5,0
FOX-1CLIFF (AO-95),2018-099N,2026-06-11T02:42:51.950592,15.26583130,.00086139,97.4393,222.3819,20.0469,340.1107,0,U,43770,999,41229,.4121126E-3,.10727E-3,0
ITASAT,2018-099AE,2026-06-11T14:52:50.626560,15.18987728,.00127249,97.4034,214.2428,19.8194,340.3532,0,U,43786,999,41206,.31930612E-3,.6626E-4,0
JY1SAT (JO-97),2018-099AX,2026-06-11T10:03:24.374304,15.33467542,.00041207,97.4135,225.2337,290.5933,69.4867,0,U,43803,999,41274,.42175768E-3,.13576E-3,0
UWE-4,2018-111E,2026-06-11T01:35:05.186400,15.45743461,.00066668,97.5852,90.1763,7.8986,352.2366,0,U,43880,999,40983,.62722516E-3,.30336E-3,0
TIANYAN 01,2019-093C,2026-06-11T14:13:04.511712,14.86509128,.0014991,97.7532,234.9609,103.3135,256.9754,0,U,44881,999,35058,.29311598E-4,.206E-5,0
RS-44 & BREEZE-KM R/B,2019-096E,2026-06-11T14:39:21.722112,12.79748751,.02179272,82.5217,343.4113,157.1662,203.9312,0,U,44909,999,30163,.60926775E-4,.28E-6,0
SALSAT,2020-068K,2026-06-11T14:03:12.574944,15.29719030,.00085257,97.8849,165.3093,331.4069,28.6701,0,U,46495,999,31450,.24314384E-3,.6923E-4,0
XW-3 (CAS-9),2021-131B,2026-06-11T15:21:27.796320,14.41352663,.0005294,98.4973,255.0596,109.3206,250.8556,0,U,50466,999,23431,.14538948E-3,.427E-5,0
GREENCUBE (IO-117),2022-080E,2026-06-01T11:09:37.753056,6.42583280,.00088692,70.1435,303.7143,293.3663,66.6064,0,U,53109,999,9105,0,-.3E-7,0
UMKA 1 (RS40S),2023-091G,2026-06-11T13:36:23.091552,15.20752735,.00140108,97.5058,221.2856,135.2420,224.9948,0,U,57172,999,16315,.27060741E-3,.5903E-4,0
CUBESX-HSE 3 (RS42S),2023-091N,2026-06-11T14:51:11.444544,15.31072798,.00121395,97.5100,228.1359,111.7791,248.4743,0,U,57178,999,16357,.41588242E-3,.1244E-3,0
MONITOR-3 (RS58S),2023-091Q,2026-06-11T13:34:31.118016,15.27727927,.00131105,97.5092,225.9705,118.1147,242.1419,0,U,57180,999,16343,.36466682E-3,.9831E-4,0
MONITOR-4 (RS57S),2023-091S,2026-06-11T14:39:07.740000,15.27819052,.00130884,97.5085,225.9867,118.2806,241.9756,0,U,57182,999,16344,.34221109E-3,.9246E-4,0
MONITOR-2 (RS39S),2023-091U,2026-06-11T13:56:52.101312,15.18857983,.00125506,97.5080,220.9002,128.2177,232.0190,0,U,57184,999,16310,.2378069E-3,.4896E-4,0
SVYATOBOR 1 (RS60S),2023-091X,2026-06-11T14:51:07.481376,15.26519253,.00109159,97.5097,226.4050,111.0802,249.1605,0,U,57187,999,16346,.31224893E-3,.8095E-4,0
VIZARD-METEO (RS38S),2023-091Z,2026-06-11T14:38:22.349760,15.35847716,.00085614,97.5099,231.9837,94.3546,265.8675,0,U,57189,999,16383,.46661678E-3,.16228E-3,0
POLYTECH-UNIVERSE 3 (RS46S),2023-091AB,2026-06-11T14:37:06.290976,15.19059773,.00165392,97.5055,220.4325,144.6551,215.5783,0,U,57191,999,16310,.22441894E-3,.4651E-4,0
UTMN 2 (RS27S),2023-091AP,2026-06-11T13:46:50.745216,15.31913208,.00094671,97.5095,229.7177,100.4479,259.7829,0,U,57203,999,16368,.39519649E-3,.1212E-3,0
