CUBEBUG-2 (LO-74)       
1 39440U 13066AA  26162.30229726  .00003136  00000+0  29203-3 0  9995
2 39440  97.8900 111.2555 0058932  48.0727 312.5496 14.93713369676117
FUNCUBE-1 (AO-73)       
1 39444U 13066AE  26162.55441071  .00005554  00000+0  34659-3 0  9992
2 39444  97.8262 133.8825 0035144 220.5848 139.2760 15.09420113678810
UWE-3                   
1 39446U 13066AG  26162.40047069  .00003579  00000+0  30929-3 0  9998
2 39446  97.8684 118.4353 0048487 340.4805  19.4558 14.96977019676712
UNISAT-6                
1 40012U 14033C   26162.41830894  .00002346  00000+0  25525-3 0  9998
2 40012  97.7868 315.2326 0046407  87.7879 272.8650 14.88214275645303
DUCHIFAT-1              
1 40021U 14033M   26162.13545657  .00093384  00000+0  10061-2 0  9997
2 40021  98.0470 220.4508 0004090 126.2071 233.9565 15.63383077654809
QB50P1                  
1 40025U 14033R   26162.54789999  .00007133  00000+0  35252-3 0  9992
2 40025  98.0966 173.2987 0007301 237.3952 122.6576 15.18175616652171
LILACSAT-2              
1 40908U 15049K   26162.59609958  .00015666  00000+0  26876-3 0  9993
2 40908  97.4657 199.2254 0005275 272.1556  87.9091 15.51260411594884
FOX-1A (AO-85)          
1 40967U 15058D   26162.58409521  .00002335  00000+0  21601-3 0  9991
2 40967  64.7757 296.3951 0130114  58.7822 302.5964 14.90942957112734
CAS-2T & KS-1Q          
1 41847U 16066G   26162.49190674  .00001549  00000+0  22435-3 0  9997
2 41847  98.3821 238.2932 0342601 146.7057 215.6206 14.44675580503972
RADFXSAT (FOX-1B)       
1 43017U 17073E   26162.58534501  .00008698  00000+0  38005-3 0  9990
2 43017  97.4718  29.9151 0150450 348.6412  11.1435 15.12626564464549
DIWATA-2B               
1 43678U 18084H   26162.63474390  .00002338  00000+0  19093-3 0  9992
2 43678  98.1180 358.6022 0012190 188.2186 171.8839 15.00426100415387
ES'HAIL 2               
1 43700U 18090A   26162.55701274  .00000161  00000+0  00000+0 0  9996
2 43700   0.0171 319.2547 0001873 163.3216   3.6824  1.00274346 27624
FOX-1CLIFF (AO-95)      
1 43770U 18099N   26162.11310128  .00010727  00000+0  41211-3 0  9990
2 43770  97.4393 222.3819 0008613  20.0469 340.1107 15.26583130412292
ITASAT                  
1 43786U 18099AE  26162.62003040  .00006626  00000+0  31931-3 0  9996
2 43786  97.4034 214.2428 0012724  19.8194 340.3532 15.18987728412067
JY1SAT (JO-97)          
1 43803U 18099AX  26162.41903211  .00013576  00000+0  42176-3 0  9997
2 43803  97.4135 225.2337 0004120 290.5933  69.4867 15.33467542412749
UWE-4                   
1 43880U 18111E   26162.06603225  .00030336  00000+0  62723-3 0  9993
2 43880  97.5852  90.1763 0006666   7.8986 352.2366 15.45743461409830
TIANYAN 01              
1 44881U 19093C   26162.59241333  .00000206  00000+0  29312-4 0  9992
2 44881  97.7532 234.9609 0014991 103.3135 256.9754 14.86509128350586
RS-44 & BREEZE-KM R/B   
1 44909U 19096E   26162.61066808  .00000028  00000+0  60927-4 0  9990
2 44909  82.5217 343.4113 0217927 157.1662 203.9312 12.79748751301632
SALSAT                  
1 46495U 20068K   26162.58556221  .00006923  00000+0  24314-3 0  9991
2 46495  97.8849 165.3093 0008525 331.4069  28.6701 15.29719030314502
XW-3 (CAS-9)            
1 50466U 21131B   26162.63990505  .00000427  00000+0  14539-3 0  9990
2 50466  98.4973 255.0596 0005294 109.3206 250.8556 14.41352663234315
GREENCUBE (IO-117)      
1 53109U 22080E   26152.46502029 -.00000003  00000+0  00000+0 0  9996
2 53109  70.1435 303.7143 0008869 293.3663  66.6064  6.42583280 91055
UMKA 1 (RS40S)          
1 57172U 23091G   26162.56693393  .00005903  00000+0  27061-3 0  9993
2 57172  97.5058 221.2856 0014010 135.2420 224.9948 15.20752735163158
CUBESX-HSE 3 (RS42S)    
1 57178U 23091N   26162.61888246  .00012440  00000+0  41588-3 0  9992
2 57178  97.5100 228.1359 0012139 111.7791 248.4743 15.31072798163572
MONITOR-3 (RS58S)       
1 57180U 23091Q   26162.56563794  .00009831  00000+0  36467-3 0  9997
2 57180  97.5092 225.9705 0013110 118.1147 242.1419 15.27727927163433
MONITOR-4 (RS57S)       
1 57182U 23091S   26162.61050625  .00009246  00000+0  34221-3 0  9995
2 57182  97.5085 225.9867 0013088 118.2806 241.9756 15.27819052163446
MONITOR-2 (RS39S)       
1 57184U 23091U   26162.58115858  .00004896  00000+0  23781-3 0  9998
2 57184  97.5080 220.9002 0012550 128.2177 232.0190 15.18857983163105
SVYATOBOR 1 (RS60S)     
1 57187U 23091X   26162.61883659  .00008095  00000+0  31225-3 0  9993
2 57187  97.5097 226.4050 0010915 111.0802 249.1605 15.26519253163461
VIZARD-METEO (RS38S)    
1 57189U 23091Z   26162.60998090  .00016228  00000+0  46662-3 0  9998
2 57189  97.5099 231.9837 0008561  94.3546 265.8675 15.35847716163832
POLYTECH-UNIVERSE 3 (R*)
1 57191U 23091AB  26162.60910059  .00004651  00000+0  22442-3 0  9997
2 57191  97.5055 220.4325 0016539 144.6551 215.5783 15.19059773163103
UTMN 2 (RS27S)          
1 57203U 23091AP  26162.57419844  .00012120  00000+0  39520-3 0  9998
2 57203  97.5095 229.7177 0009467 100.4479 259.7829 15.31913208163689
